ORBCOMM FM115           
1 41186U 15081H   25281.85767074  .00001178  00000+0  26307-3 0  9994
2 41186  46.9979 218.8605 0001330 257.0492 103.0247 14.62727650524415
ORBCOMM FM108           
1 41187U 15081J   25281.08460572  .00001120  00000+0  27571-3 0  9994
2 41187  47.0049 293.7345 0001349 125.2551 234.8461 14.58385417523271
ORBCOMM FM117           
1 41188U 15081K   25281.39347156  .00001045  00000+0  25978-3 0  9996
2 41188  47.0011 291.0009 0002021 139.1123 220.9914 14.58379793523365
ORBCOMM FM116           
1 41189U 15081L   25281.65087884  .00001387  00000+0  33233-3 0  9997
2 41189  47.0037  19.5819 0002198 300.3151  59.7517 14.58454712522219
